STARLINK-31856          
1 59960U 24107R   26068.27148884  .00002163  00000+0  85176-4 0  9999
2 59960  53.1605  67.3866 0001335  78.5274 281.5877 15.30186943 99738
KUIPER-00226            
1 67785U 26030X   26068.62629313  .00046834  00000+0  15530-2 0  9998
2 67785  51.8814 220.1252 0017713  64.2781 296.0030 15.30655594  5078
